parent_id,name,phone,address,email,consent_id,contract_id
92.0,Nathan Farrell,001-872-743-4732x620,"38662 Johnson Expressway
Michaelmouth, NV 73649",qstone@example.com,623.0,56.0
667.0,Stephanie King,819-421-4057,"04926 Jared Underpass Apt. 456
Lake John, NC 15144",triciarichardson@example.net,284.0,59.0
640.0,Sandy Mercado,683.342.3572x81715,"590 Grant Spurs
Lake Ellenstad, NV 32074",amay@example.net,308.0,102.0
600.0,Dylan Bowers,+1-739-272-2950x76492,"Unit 2429 Box 1497
DPO AA 01154",lindsay90@example.net,763.0,994.0
9.0,Jeremy Cabrera,001-876-234-3780x63663,"96299 Kevin Plain Suite 442
Port Morgan, AK 93774",lmullins@example.org,148.0,643.0
105.0,Richard Arias,339-210-3656x48200,"2257 Kathleen Prairie Suite 288
Lauramouth, NJ 51541",jessicasnyder@example.net,253.0,651.0
789.0,Adam Rodgers,540-250-7417,"Unit 1183 Box 3248
DPO AE 28476",ileon@example.org,387.0,19.0
441.0,Summer Moreno MD,+1-741-914-7462x6523,"USNV Russell
FPO AE 83318",elliottmichael@example.com,670.0,87.0
758.0,Raymond Martinez,001-591-307-0916x299,"979 Bernard Common
Ramirezchester, VA 10311",connor33@example.net,302.0,434.0
130.0,Joshua Marquez,+1-656-640-3742x81856,"663 Alexander Turnpike Suite 956
Madisonfort, AZ 52367",ricky28@example.com,713.0,681.0
868.0,Kimberly Barber,+1-593-217-8356x401,"1453 Torres Bypass
Fuentesport, OH 81424",michael93@example.com,701.0,559.0
152.0,Michael Thornton,431.535.5310x2363,"PSC 5765, Box 0316
APO AP 35850",jfarley@example.net,108.0,27.0
884.0,Maurice Anderson,573-590-7627x8388,"665 Hernandez Lakes
Ramirezbury, AR 06961",glennelizabeth@example.net,773.0,558.0
146.0,Tara Keller,001-637-204-5266,"852 Jacob Shores
South Jonathanshire, MH 55752",jeffery82@example.org,213.0,351.0
572.0,Jeremy Castro,001-408-948-9951x0581,"426 Jean Hollow Apt. 471
North Leeton, WV 13965",hillkevin@example.net,62.0,772.0
907.0,Holly Miller,412.658.9233,"6502 Lucero Via Suite 466
West Cynthiashire, IA 17272",holly70@example.net,501.0,44.0
53.0,Terry Cook MD,3332399024,"4238 Stacey Radial
Port Davidshire, NV 08733",christophermejia@example.net,969.0,724.0
392.0,Donna Lambert,001-214-288-3781x611,"508 Morales Path Suite 171
Blackhaven, WA 10316",christinamcintyre@example.net,741.0,222.0
252.0,Mrs. Paula Lee,392-430-5496x909,"34152 James Mission Suite 584
Loganborough, MP 41969",vmoore@example.net,240.0,79.0
662.0,James Lee,001-670-250-6608,"40381 Tony Plaza Suite 370
Port Richard, TX 61216",ipeterson@example.org,943.0,775.0
592.0,Kevin Allen,805-751-8464x55972,"2987 Guerrero Streets
Kennethmouth, MS 77262",daviskimberly@example.net,762.0,173.0
487.0,Christine Obrien,001-470-566-4635x74343,"1174 Hall Flats
North Brookeborough, KY 92438",katherineolson@example.org,660.0,812.0
948.0,Michelle Powers,(568)980-5960x964,"927 Hughes Shoals
North Hannah, NC 82499",jenniferblack@example.net,522.0,778.0
745.0,Kyle Johnson,397.795.5308x9720,"8560 Sosa Mission Apt. 117
East John, AK 31181",tiffany68@example.net,443.0,571.0
940.0,Dwayne Burke,740.782.6439,"49522 Tiffany Camp
North Kathleenburgh, MP 34454",adambradshaw@example.net,871.0,410.0
415.0,Tammy Case,250-404-4276x564,"175 Lawrence Points Apt. 705
Port Matthewmouth, AS 21490",chall@example.com,981.0,131.0
4.0,Kevin Brown,001-219-222-7176x64754,"9698 Christopher Cliffs Apt. 646
North Daniel, AR 03966",xgordon@example.com,603.0,935.0
422.0,Cynthia Gomez,001-996-282-0223x13197,"635 Johnson Hills
Smithberg, GU 32200",lijulie@example.org,510.0,535.0
714.0,Cynthia Wilson DVM,(414)550-5263x0241,"138 Medina Cliff
East Roseberg, AK 23407",jmedina@example.com,249.0,844.0
878.0,Joshua Hayes,345.989.4956,"459 Medina Pines
West Jessica, NE 72759",joe41@example.net,500.0,860.0
397.0,Tina Washington,001-601-605-1002x013,"Unit 2921 Box 3990
DPO AA 19715",davidowens@example.net,723.0,760.0
658.0,Steven Hamilton,986.322.2512x0907,"344 Harvey Camp
Lewiston, GU 48059",nancyhoover@example.org,159.0,611.0
364.0,Theodore Oconnor,236.352.8479,"264 Sara Plaza
Port Tinamouth, NV 49224",teresa99@example.net,106.0,536.0
903.0,Denise James,255-959-0678x9699,"471 Irwin Pass
West Mikeburgh, CA 09772",clairewhite@example.com,229.0,357.0
804.0,Virginia Gutierrez,467-877-7237x50973,"553 Jenna Loop Suite 423
Lake Terri, MD 72119",paulpowers@example.net,934.0,619.0
177.0,Valerie Garza,8005865708,"76492 Brian Pines
West Vanessa, MH 29624",martinezanthony@example.org,898.0,246.0
187.0,Andre Bullock,806.728.9899,"12592 Michael Trace
Susanshire, OR 41258",richard64@example.org,787.0,406.0
168.0,Sarah Fletcher,980.552.4797,"8824 Lambert Turnpike Suite 378
North Rodneyside, VI 24083",otaylor@example.org,957.0,913.0
241.0,Robert Ortiz,+1-362-637-8108x093,"9822 Adams Tunnel Suite 305
Norrisport, MN 65960",awalker@example.com,132.0,677.0
598.0,Cheyenne James,422-757-1715x38509,"42954 Andrew Squares
New Sylvia, IA 21428",aanderson@example.com,850.0,76.0
846.0,Kevin Garza,(733)802-4823x01224,"4300 Avery Lodge
Port Victoria, PA 80851",coreyblair@example.net,436.0,85.0
127.0,Miss Isabella Shaffer,(675)312-8060x600,"2475 Johnny Grove
North Nicholas, PW 62675",damon29@example.com,292.0,704.0
894.0,Micheal Roberts,001-982-220-9057,"787 Alexander Station
Jeffreyfort, PR 68718",jodiwhite@example.com,6.0,98.0
444.0,Christian Herrera,975.229.1837x42453,"331 Linda Drive Suite 339
Humphreyborough, DC 34572",bradley23@example.org,618.0,949.0
112.0,Curtis Gentry,(372)571-9835x245,"482 Debra Vista Apt. 144
West Susanport, IL 32592",walkerashley@example.com,529.0,848.0
561.0,Brian Fernandez,991-267-6571,"7122 Cherry Neck Suite 331
Susanhaven, VI 75341",tommyfrazier@example.net,303.0,104.0
799.0,James Contreras,(565)498-4036x554,"090 Omar Fields
Michaelburgh, FL 87389",uburton@example.com,82.0,183.0
25.0,Steven Young,+1-844-624-2526x68915,"083 Shelby Street Apt. 426
Port Benjamin, IN 85072",robertmendoza@example.com,597.0,962.0
697.0,Kerry Hampton,947.661.2152x18155,"075 Stanley Viaduct
Tracyfort, NE 24030",tammy55@example.com,909.0,306.0
210.0,Carol Jackson,716-932-7400x9279,"301 Beverly Springs
Hancockburgh, MH 62413",walkermaria@example.org,504.0,874.0
779.0,Randy Harrison,220.450.5782x72033,"436 Betty Pine
Copelandside, NY 54149",obarton@example.org,45.0,327.0
484.0,Andrea Peterson,(818)565-3525x2811,"9871 Matthews Shoals
North Kimberlyborough, DC 62276",shepardbrian@example.net,265.0,627.0
160.0,Stephen Crawford,(522)347-1971x7215,"725 Gregory Isle Suite 173
Reynoldsbury, LA 51404",ijohnson@example.net,854.0,605.0
374.0,Bryan Peck,502-643-8070x272,"23042 Jones Knoll
Clarkland, NH 93502",caroline53@example.org,832.0,849.0
185.0,Sergio Nguyen,001-895-321-9158x06121,"88859 Laura Walk Suite 055
South Jasonton, IA 04418",pittspatrick@example.com,733.0,584.0
201.0,Bill Perez,001-452-534-4708,"640 Nicole Road Suite 942
New Christinachester, FL 21479",charlotte20@example.org,181.0,428.0
369.0,Monica Meza,502.772.0846,"984 Paul Mountains
Nicholasfort, PA 53546",nmartinez@example.net,458.0,523.0
216.0,Courtney Graves,569-734-7841,"USCGC Castro
FPO AE 29750",jennifer42@example.net,329.0,486.0
509.0,Gregory White,6393672491,"4504 Jones Stravenue
Powellside, IN 94883",breannasmith@example.com,869.0,5.0
857.0,Carmen Chambers,(808)979-6823,"888 Rodriguez Grove
Darinfurt, GA 43437",hbennett@example.com,930.0,3.0
766.0,Lisa Wyatt,(663)476-7567,"6794 Stacey View
North Taylor, MN 52633",nathanrivera@example.net,961.0,647.0
493.0,Matthew Harrison,001-328-672-0678x341,"77274 Brittany Roads
Petersonstad, VI 99537",hmelton@example.org,747.0,679.0
573.0,Mary Carter,485.324.4285,"5826 Andrew Village
Buckview, TN 87170",cohenmark@example.net,862.0,722.0
485.0,Peter Rivera,(700)838-7007x07792,"1664 Mills Bypass
Romeroport, AZ 37006",kruegeraaron@example.org,614.0,897.0
674.0,Theresa Chapman,419-764-1052x1965,"925 Stone Lane Suite 249
Douglasbury, AZ 53725",johnkelley@example.net,402.0,549.0
39.0,Patrick Le,(334)596-4414,"443 Jeremy Square Apt. 336
West Natasha, GU 46663",lisa07@example.net,918.0,349.0
362.0,Thomas Mitchell,(304)532-5218x045,"726 Fletcher Squares
Lake Christianberg, ND 14230",berrykimberly@example.com,358.0,783.0
28.0,Julie Long,+1-691-827-2663x66727,"0456 Bradshaw Garden
Lake Samantha, HI 88047",zdalton@example.org,186.0,505.0
26.0,Jasmine Davis,(840)744-8063,"5241 Ashley Dale
Port Kelly, MD 24793",gonzalesandrew@example.net,340.0,511.0
67.0,Crystal Boyd,(313)349-9047,"333 Debra Islands
Rachelburgh, ME 88645",carlsonoscar@example.org,419.0,516.0
29.0,Anna Peterson,5196139067,"8197 Diane Junctions Suite 706
North Brandonport, SD 55717",darren82@example.com,167.0,765.0
545.0,Shawn Gentry,(683)909-7047,"745 Andrew Dam
Bradshawland, PR 51962",fcharles@example.org,582.0,845.0
473.0,Mary Steele,374-475-1564x3594,"8208 Dalton Brook
North Aprilbury, WY 91910",eharrison@example.net,811.0,142.0
669.0,Carol Sanford,(684)200-7326x3792,"4937 Wanda Ways Apt. 611
North Loriland, PA 68747",aneal@example.com,958.0,564.0
873.0,Marie Dean,220.813.5715x018,"717 Anna Key
Kurtburgh, KY 52363",joshuareilly@example.org,297.0,450.0
259.0,Tracy Johnston,638-857-0208,"989 Christina Meadow
Louisberg, AL 13328",robersonrobert@example.com,2.0,684.0
576.0,Drew Stewart,325-947-5848,"6743 Dillon Village
Sharonfort, NC 15811",qsanchez@example.com,997.0,910.0
606.0,Kevin Hancock,(427)857-1376,"USCGC Beck
FPO AA 77965",uprice@example.org,996.0,795.0
482.0,Lisa Howell,+1-783-371-3674x583,"6609 Simpson Road Apt. 115
Lake Kaylaport, VA 63108",kayla44@example.net,664.0,851.0
184.0,Beverly Pearson,(363)643-3311x46081,"5461 Smith Village Apt. 261
East Bill, WV 80951",moorejustin@example.org,821.0,827.0
859.0,Kimberly Jackson,+1-757-466-2745x72357,"0906 Elliott Field
Zacharystad, NV 78273",stuartwesley@example.com,938.0,57.0
393.0,Kayla Patel,935.281.9017x0490,"46452 Maureen Lock
Susanfurt, NC 61797",jennifer64@example.org,499.0,423.0
14.0,Sara Ruiz,536.786.8701x76307,"09985 Williams Estate Apt. 696
Port Ericborough, CO 50032",brittanytodd@example.com,634.0,950.0
729.0,Jennifer Hutchinson,+1-940-647-7620,"54460 Walters Club Suite 578
New Brentborough, DC 35152",zthomas@example.net,472.0,972.0
463.0,Bryan Dorsey,+1-952-233-2994x7279,"9889 Whitney Mills
Lake Rachelland, SD 11310",thomascatherine@example.org,683.0,298.0
49.0,Elizabeth Avila,7258618217,"833 Lee Run
Williamchester, MH 63416",catherinemyers@example.com,467.0,737.0
954.0,Brian Andrews,001-209-681-2785,"207 Hill Rue Apt. 847
Port Heatherview, PW 54423",markreese@example.org,834.0,989.0
646.0,Jennifer Navarro,+1-280-205-3090x63313,"PSC 3696, Box 8657
APO AE 85956",christopherrobbins@example.org,101.0,218.0
12.0,April Murphy,222-611-4392x886,"5734 Barnes Village
Lake Matthewport, MI 61557",taylor57@example.com,40.0,206.0
435.0,Rose Smith,837.945.2339x093,"59042 Rebecca Courts
Sanchezside, SD 36354",frederickalvarez@example.com,596.0,578.0
314.0,Nicholas Vega,(651)218-7663,"5806 Reynolds Village Suite 120
Gavinside, IL 53264",kenneth87@example.org,593.0,581.0
107.0,Jennifer Frederick,(242)402-3124x63607,"005 Erickson Walks Apt. 297
New Stephenfurt, AS 53202",marissashepard@example.com,820.0,715.0
756.0,Melissa Washington,+1-377-995-4645,"7279 Spence Avenue
South Paulmouth, MO 73574",dawnbaker@example.net,228.0,543.0
145.0,Mark Gonzalez,672-641-2940,"74051 Chen Key Suite 144
Traceychester, IA 79804",kaylatorres@example.net,858.0,89.0
46.0,Christy Nelson,3944335937,"640 Emily Circles
East Denise, CA 02210",andrea00@example.net,833.0,885.0
124.0,Nathan Vasquez,(420)361-2175x43007,"USNV Higgins
FPO AP 80738",fletcherleslie@example.net,282.0,659.0
925.0,Robert Mullins,001-783-356-2122x31968,"3934 Oconnor Row
East Andreaview, NE 07925",amypatrick@example.net,824.0,750.0
464.0,John Decker,001-738-617-3775,"04718 Lopez Hills Suite 456
Carterside, HI 74971",johnsonleah@example.org,8.0,100.0
47.0,Brooke Cole,581.935.3052x61103,"613 Mccann Islands Suite 883
Danielsport, VA 74565",kelly05@example.net,992.0,43.0
219.0,Tiffany White,(502)418-0463,"7650 Bernard Crest Suite 280
Lake Jamesland, CA 13428",allensharon@example.com,123.0,418.0
