parent_id,name,phone,address,email,consent_id,contract_id
416.0,Jeffrey Schmidt,6373552886,"33695 Johnston Mountain Suite 817
North Brittanyside, OH 69909",sthomas@example.net,729.0,36.0
235.0,Theresa Aguilar,495.748.9303x198,"50552 Sanders Dale Suite 063
North Charlottemouth, DE 24755",georgemcintosh@example.com,319.0,366.0
565.0,Heather Rivera,(307)413-0343x9819,"965 Carroll Oval Apt. 160
Michaelmouth, PA 48855",monicaflores@example.org,807.0,380.0
468.0,Sharon Thompson,+1-264-469-4661x270,"0487 Mark Terrace Suite 546
East Anthonyton, OR 07510",jeremystafford@example.org,777.0,994.0
265.0,Trevor Perez,925.875.0977x0665,"56637 Chang Drive
Lake Jochester, WV 92379",woodlawrence@example.net,153.0,175.0
445.0,Lynn Reynolds DDS,409.538.6400x2682,"262 Thomas Road Suite 915
New Jenniferfurt, DE 55125",lauriemiller@example.com,439.0,561.0
54.0,Joshua Horton,(335)674-6350,"440 Sherry Valley Apt. 365
Lake Lorishire, ID 30195",kristina87@example.net,148.0,917.0
269.0,James Bridges,356.849.5200x952,"PSC 5451, Box 2847
APO AA 47090",hoconnor@example.org,593.0,4.0
755.0,Kenneth Mccullough,402.504.9549x0903,"PSC 4702, Box 3727
APO AA 20225",hernandezchase@example.org,590.0,858.0
238.0,Darrell Rivera,+1-548-461-3511,"39954 Chelsea Gateway
East Lisa, NH 14634",riosdonna@example.net,617.0,136.0
935.0,Teresa Richard,(570)943-0974x6346,"674 Henry Stream Suite 900
Danaville, NH 34482",molinaanita@example.com,95.0,163.0
803.0,Caleb Avila,001-784-463-7593x938,"648 Banks Island
Wattsstad, CT 75975",greenjeffrey@example.com,901.0,648.0
790.0,Desiree Hill DDS,204-632-4253,"USNV Morris
FPO AE 54340",smithshaun@example.net,663.0,705.0
531.0,Diana Wilson,717.432.3027x7025,"11241 Pearson Heights
New Stephanie, IL 96746",estephens@example.org,938.0,569.0
764.0,Emily Lara,+1-770-459-9071x750,"877 Jasmine Meadow
Anthonyborough, MO 08083",gabrielcarroll@example.com,653.0,956.0
458.0,Brandon Hammond,(813)471-8698x06567,"PSC 5607, Box 7164
APO AA 81241",farmercathy@example.com,305.0,714.0
209.0,Joseph Torres,7123676632,"USNV Lambert
FPO AE 68201",xwood@example.org,941.0,379.0
797.0,Lori Pena,243-819-7829x0925,"PSC 4075, Box 5360
APO AP 58819",aaron10@example.net,434.0,331.0
877.0,Christina Hamilton,(497)958-4892x6030,"67246 Martinez Trail
Theodoreborough, HI 66243",uhuff@example.org,559.0,395.0
736.0,Laura Valdez,674-480-5350,"5302 Kimberly Junctions Apt. 455
Port Brent, CA 04083",ashleypalmer@example.net,30.0,977.0
228.0,Carmen Parsons,864-438-1824x77919,"62734 Justin Square Suite 904
South Ericbury, WA 60514",stephanie69@example.net,129.0,498.0
346.0,Dawn Nash,429.503.3689,"778 Mcgee Points
Coletown, NJ 57197",bhayes@example.com,934.0,553.0
98.0,Stephanie Avila,3189555383,"562 Turner Extensions Suite 158
Rosariochester, MH 13938",chadwilcox@example.com,655.0,187.0
983.0,Sarah Mcclain,443-563-4082x2222,"6517 Steven Brooks Suite 555
Floydland, MH 36920",skramer@example.com,992.0,571.0
333.0,Michelle Gonzalez,334-384-8533,"721 Lisa Villages Apt. 853
Bryanland, FM 82485",franciscogarcia@example.net,253.0,146.0
324.0,Marie Long,542-221-5720,"0769 Michelle Ports
East Diana, IA 03829",raymond53@example.com,85.0,666.0
774.0,Erin Nelson,+1-552-874-2882x366,"PSC 0785, Box 5479
APO AP 32112",hwalker@example.org,518.0,247.0
219.0,Linda Gill,001-409-380-6620x2351,"580 Adam Villages
Martinezfort, VT 13473",randyshea@example.net,166.0,474.0
888.0,Jacqueline Richardson,660-575-1239,"51511 Danielle Field Suite 736
South Carla, UT 21095",blacktaylor@example.net,49.0,863.0
494.0,Rachel Santiago DDS,375-779-8493x38033,"85344 Tran Canyon
North Katherinemouth, KS 13182",qcarlson@example.org,70.0,618.0
898.0,Jasmine Ibarra DDS,(401)597-9288,"Unit 3355 Box 7142
DPO AE 12018",freemancynthia@example.net,753.0,105.0
364.0,Kelly Riggs,480-234-8459x1505,"31092 Jorge Extensions Apt. 175
Mooreport, AR 87786",ebell@example.org,505.0,990.0
629.0,Philip Haynes,352-221-0464,"43428 Adriana Roads
Debraberg, ME 77802",luismendez@example.com,541.0,743.0
861.0,Jeffrey Lawrence,301.797.7027,"430 Cheryl Mill
Loweside, VA 87846",teresagarcia@example.org,152.0,173.0
819.0,Veronica Knapp,6527576193,"1516 Samantha Skyway Apt. 873
East Tracy, ID 91512",fletchermariah@example.org,878.0,782.0
827.0,Cynthia Johnson,001-821-913-2639,"0845 John Bridge
Nathanside, MN 15565",shepherdleslie@example.com,535.0,702.0
758.0,Michael Reyes,4998624142,"369 Katherine Squares Suite 204
Abigailshire, VI 22841",connerwayne@example.com,236.0,957.0
161.0,Michele Edwards,(879)218-7602x201,"2654 Hahn Mill Apt. 472
Port Amy, NJ 52958",garmstrong@example.net,548.0,369.0
922.0,Scott Nelson,+1-462-419-0653x35650,"93369 Harper Drives Apt. 644
Port Dawn, MA 49884",thomas18@example.net,906.0,41.0
183.0,Robin Barnett,821.915.0104,"380 Hale Flats
New Meganfort, NJ 72215",michaelmills@example.com,786.0,242.0
357.0,Michael Curtis,795-750-3953,"Unit 7422 Box 3045
DPO AP 51471",robertjohnson@example.net,833.0,684.0
986.0,Kimberly Smith,+1-788-991-6686,"762 Anthony Cape
New Charlene, MS 37083",dterry@example.org,186.0,716.0
677.0,Shane Anthony,7036680690,"80132 Smith Trafficway Suite 269
New Jamesport, ME 16665",robert57@example.net,785.0,598.0
424.0,Andrew Little,+1-557-488-5445,"46348 Christina Landing Apt. 898
South Adammouth, OH 62674",schwartzmatthew@example.org,867.0,988.0
601.0,Alexander Ramirez,453.399.9358,"1525 Alexis Gateway Suite 445
Lake Whitney, MH 85956",pattersonbrenda@example.net,78.0,55.0
192.0,Jocelyn Leon,9746381820,"92261 Mcclure Stravenue
Port Wendymouth, AK 72298",zyoung@example.com,816.0,597.0
507.0,Jerry Webb,001-853-942-6311,"413 Hughes Cape
Holderstad, KS 07946",aprilhuerta@example.com,200.0,578.0
615.0,Michael Miller,(832)392-9255,"7959 Daniel Track
Currymouth, WY 93408",jessica71@example.net,244.0,180.0
477.0,Jim Ibarra,433-247-0149,"18842 Jose Plains Apt. 418
Danielsmouth, PA 96028",christensengreg@example.com,132.0,454.0
93.0,Andrew Smith,001-412-993-2681,"856 Mcdonald Village Apt. 106
New Jacqueline, PR 63067",carlsonrebecca@example.net,585.0,133.0
707.0,David Dillon,4187205465,"529 Crosby Roads Suite 600
New Jonathanside, MP 64986",melissa60@example.net,8.0,815.0
139.0,Krystal Lee,+1-268-606-5149x86293,"245 Richard Shores Apt. 208
Friedmanland, KS 17844",brandyevans@example.net,502.0,772.0
775.0,Daniel Watkins,328.546.9733x595,"PSC 7287, Box 5345
APO AP 54913",umiller@example.org,870.0,609.0
430.0,Dorothy Green,411-817-7296,"USS Short
FPO AE 52365",kjacobs@example.org,290.0,63.0
350.0,Christopher Wagner,238-838-5861x41216,"06973 Rachel Trafficway
Davidsonhaven, OH 73435",cherylnichols@example.net,28.0,545.0
622.0,Benjamin Young,662.313.7696x16012,"02575 Samuel Pines Apt. 241
Greenmouth, NC 26764",jacqueline26@example.com,627.0,363.0
501.0,Janice Gregory,+1-239-792-6134x04046,"254 Snyder Mountains
Brianport, MO 31578",ejohnson@example.net,726.0,759.0
954.0,Robert Wilson,(377)937-5470,"871 Cody Fields Apt. 026
North Sandrahaven, VT 91439",gregory41@example.net,821.0,426.0
845.0,Amy Walker,563-251-7775x5934,"646 Simpson Canyon
North Keithfurt, DE 16733",sharonfox@example.org,884.0,942.0
103.0,Charles Bowers,627-386-2004x4630,"839 Williams Throughway
Port Mindyland, ME 94409",blanchardwendy@example.net,886.0,626.0
603.0,Sheri Duran,+1-403-732-2507x96076,"2374 Phyllis Cape Apt. 885
New Joseph, LA 25837",sarahfloyd@example.net,838.0,831.0
360.0,Jared Jennings,(665)469-6539x3283,"20605 Justin Mountains
Williamsshire, IA 47704",nicole96@example.net,373.0,406.0
259.0,Charles Figueroa,458-756-1668,"373 Christine Summit
Clarkfurt, CA 48203",ljoseph@example.net,955.0,721.0
948.0,Sarah Griffin,271.660.0012,"7237 Shawna Street
West Marymouth, WV 19818",michael65@example.net,89.0,514.0
633.0,Rebecca Hall,(565)691-2478,"8433 Orr Rapids
Cortezburgh, OR 11965",jacksoncheryl@example.net,9.0,768.0
418.0,Jodi Burnett,(928)974-2189,"53197 Melissa Divide
Port Laurenfurt, OH 30706",scottmeagan@example.org,427.0,304.0
286.0,Tracy Morgan,(737)206-0247,"6227 Sabrina Courts
North Carmenmouth, AZ 39170",gsanchez@example.org,53.0,87.0
616.0,Miguel Williams,001-379-479-7077x59693,"9767 Nelson Port Apt. 238
Amyborough, MN 46313",cannondonald@example.org,394.0,652.0
773.0,Kathy Davis,(951)309-3895x5780,"669 Clark Valley Suite 115
Zacharyview, PW 88992",natasha77@example.org,851.0,100.0
628.0,Sandra Miller,5739475059,"94817 Martin Bridge Apt. 915
New Ericburgh, HI 54356",sandrahouse@example.org,921.0,680.0
251.0,Henry Stark,364.946.9461x64083,"8250 Silva Course Apt. 351
Mayland, NJ 74327",butlerscott@example.com,865.0,492.0
29.0,Angela Robertson,(464)648-2958,"9168 Jeffrey Junction
Brendatown, RI 80187",angela74@example.com,355.0,999.0
288.0,Wanda Smith,2259576932,"3270 Savannah Bypass
Harrischester, PA 86297",twheeler@example.net,52.0,930.0
811.0,Andrew Jones,265.962.8813x676,"163 Eric Spring
North James, NV 69372",lmacdonald@example.org,354.0,657.0
970.0,Frank Morales,001-941-542-8938x845,"0773 Lopez Forge Apt. 536
East Davidfurt, RI 87603",brandonnguyen@example.org,761.0,447.0
310.0,Dan Turner,+1-696-447-6690x11448,"0416 Samantha Skyway
Port Jacqueline, VA 61309",tiffanycisneros@example.org,641.0,836.0
674.0,Angela Mercado,309.533.3499x232,"1537 Morton Plains
Meganshire, TN 05815",victoria37@example.org,497.0,701.0
160.0,Cassandra Peterson,(478)786-9671x8573,"7591 Jesus Alley Suite 558
Port Josephberg, WV 06037",derrick08@example.com,205.0,912.0
799.0,Richard Bryant,(254)947-7358,"676 Lindsay Turnpike Apt. 097
Brennanside, MS 10037",matthew19@example.com,196.0,107.0
853.0,Justin Strickland,001-898-912-3317,"460 Herrera Villages Suite 718
South Toddland, LA 53789",staceyandrade@example.org,740.0,762.0
241.0,Bryan Adams,+1-888-409-0659x0867,"596 Cooper Freeway
South Conniechester, PR 34974",nicholaslewis@example.net,429.0,676.0
839.0,Michael Howe,+1-452-815-9916,"29081 David Extensions
Sheppardton, MS 60283",norriswesley@example.net,185.0,294.0
624.0,Roger Miller,(487)772-7448,"045 Fischer Shore
Trevorborough, DE 99505",hclark@example.org,194.0,506.0
398.0,Andrew Holmes,001-414-873-8250x119,"2864 Travis Canyon
Melissatown, NY 29882",cassandrapalmer@example.org,472.0,392.0
436.0,Lee Stark,8527163268,"577 Lin Circles Suite 818
North Linda, GU 40150",lcombs@example.org,39.0,106.0
428.0,Tyler Fox,+1-342-311-6788x21923,"11826 Sheppard Ports
Melissafurt, DC 17552",heather13@example.net,893.0,873.0
122.0,John Mills,7702720145,"206 Glenda Point
Angelachester, NE 09087",peterperez@example.org,150.0,661.0
113.0,Robert Martin,8202910872,"9712 Henry Street Suite 364
New Matthewhaven, GU 32376",scottgloria@example.com,67.0,960.0
542.0,Brian White,001-660-505-6896x5262,"PSC 1019, Box 9470
APO AE 56122",jasonroth@example.org,271.0,164.0
632.0,Christopher Miller Jr.,672.841.9345x286,"70715 Jennifer Islands
East Benjamin, GA 30125",yblack@example.net,678.0,760.0
171.0,Tiffany Walker,984.360.7287,"95318 Ramos Curve
Benjaminstad, MS 98957",ryan31@example.net,285.0,457.0
482.0,Adam Macias,698-297-2486x230,"2424 Michael Walk
Rubioton, MD 23788",ljimenez@example.net,588.0,169.0
781.0,Ashley Peterson,+1-479-457-5437,"506 Mary Isle Apt. 458
South Timothy, TN 96492",novakangel@example.net,670.0,21.0
914.0,Melissa Bell,594-584-5325x824,"812 Wesley Circle Apt. 434
Louisburgh, GA 69450",paulnelson@example.net,788.0,589.0
262.0,William Stone,853.899.2090,"664 Michelle Parkway
Danielmouth, IN 26810",johnsonsheri@example.net,481.0,825.0
869.0,Alice Mccoy,210-905-4661,"321 Natalie Trail Apt. 161
New Michelle, VT 97766",williamewing@example.com,328.0,889.0
417.0,Victor Parker,752-907-5126,"86242 Sandra Mountains Apt. 099
South David, WV 96673",jennifer59@example.net,20.0,508.0
500.0,Daniel Miller,5727873639,"49420 Erica Manors
New Kristinefurt, TX 66203",farrellrobert@example.net,140.0,491.0
679.0,John Mercado,857-604-7836x90803,"Unit 9477 Box 0633
DPO AP 72501",davidmartinez@example.net,231.0,378.0
607.0,Nancy Nichols,338-457-2274x39706,"331 Lewis Cape
South Johnside, FL 08720",thomassarah@example.org,730.0,798.0
