contract_id,parent_id,parent_name,phone,address,email
882781,747752,Denise Harris,244-675-9689,"0191 Courtney Stream Suite 241
East Samantha, FL 77341",malexander@example.com
517134,291164,Jennifer Pacheco,101-916-7753,"104 Tiffany Knoll
Christopherstad, AZ 91290",justin15@example.net
273322,861159,Matthew Ramirez,170-610-8655,"6386 William Port Apt. 247
North Nicole, GA 97334",uwilliams@example.com
451322,757639,Kristin Larson,859-617-1470,"30249 Lambert Ridges Apt. 615
Port Matthewport, MO 17236",seanallen@example.org
656555,135398,Evelyn Mclaughlin,200-720-9817,"47454 Michael Landing Suite 063
Kristachester, NV 25038",lovekathryn@example.com
221133,683269,Kaylee Robinson,646-374-0805,"90041 Hart Court
Lake Matthew, WA 22375",xholloway@example.com
699274,735261,Amanda Harris,730-046-5071,"039 Murphy Glen Suite 246
Briannatown, MH 21481",wdavis@example.net
788529,385675,Sergio Vance,678-052-5318,"591 Young Avenue
Owenborough, AR 30052",christopher25@example.net
498695,559673,Lindsay Davidson,813-876-5808,"63920 Vazquez Landing Suite 600
Stevenberg, VI 69275",downsjanice@example.org
346783,683981,Jose Vincent,924-013-4114,"47014 Mark Cape
New Christopherstad, GU 53721",ewingmichelle@example.net
769728,431431,Brett Lester,513-384-7743,"08292 Angela Run
Jacquelineton, MS 69961",brentcunningham@example.com
467531,853872,John Miranda,602-533-1800,"7883 Farley Burg Apt. 772
Danielview, OH 24079",andrew60@example.org
439417,818698,Douglas Bond,688-228-5326,"183 Michael Tunnel
Port Debra, MA 12838",penny32@example.com
181645,882326,Joshua Hughes,487-307-4930,"PSC 7724, Box 2750
APO AP 52931",tarayoung@example.com
896193,245339,Sarah Hughes,491-920-9675,"26380 Cowan Locks
Ambermouth, MD 34605",reesedavid@example.com
292254,541937,Matthew Larson,023-568-3364,"527 Laura Plains
Sullivanhaven, DE 46666",bryan93@example.net
972196,248261,Dennis Rivera,981-030-1738,"693 White Landing
New Hollystad, TN 35072",brian86@example.net
194616,527626,Julia Johnson,147-973-9169,"USNS Soto
FPO AP 46132",hrandall@example.org
338237,312888,Alan Spencer,869-888-1437,"229 Parker River Apt. 358
Port Peterburgh, CO 40957",wjackson@example.net
899673,516186,Erin Stein,714-625-6856,"922 Christina Fort Apt. 261
East Stephen, WY 93772",zbell@example.com
632778,341561,Victoria Nicholson,480-258-8181,"66834 Edward Ports Apt. 738
North Timothyside, OK 02331",kristina22@example.org
788135,297275,Michael Pacheco,425-678-7487,"99324 Snow Isle
Lake Scotthaven, WY 29057",whitekristy@example.org
653279,347214,Jeffery Phillips,034-309-5218,"64544 Sarah Keys
Wadeview, MO 92121",ashley72@example.com
632863,377532,Megan Lawson,563-711-3027,"117 Shannon Rue
Fullerfort, MN 89417",austinhogan@example.com
165226,587536,Amanda Meyers,540-080-9175,"USNS Bryant
FPO AA 73028",jennifer90@example.net
837613,269488,Kristen Martinez,214-147-5850,"PSC 0720, Box 1690
APO AE 75044",melissa10@example.com
689721,785727,Jonathan Smith,002-381-9456,"PSC 4689, Box 2428
APO AE 33037",mlopez@example.org
443172,637721,Michael James,079-407-1207,"PSC 4815, Box 9326
APO AP 50823",santiagochelsey@example.com
655828,968438,Ryan Garcia,219-650-4935,"USCGC Gonzalez
FPO AE 54655",michaelstephens@example.net
134414,992587,Jennifer Rivera,427-083-0993,"056 Morgan Squares Suite 260
Singhstad, KS 84440",jmayer@example.org
572953,285335,Nathan Cannon,405-719-9788,"7049 Davis Lakes
Alvarezfort, MI 60499",austinwilliams@example.com
777146,497519,Joshua Davis,321-947-6678,"PSC 6290, Box 1152
APO AP 15735",xatkinson@example.org
852719,219297,Michael Thompson,361-185-4498,"787 Stephens Village
New Paigefurt, MN 68573",hartarthur@example.com
815885,728565,Christopher Barker,438-518-5913,"24098 Moreno Inlet Apt. 807
Jacksonville, FL 17404",tiffanycameron@example.com
421798,291283,Taylor Reed,529-112-5889,"758 Jason Plaza
Thompsontown, CA 97483",michelle47@example.com
729252,371275,Christopher Garza,182-831-9595,"4558 Elizabeth Glen
Josephshire, ID 53577",medinaandrea@example.org
352825,688563,Roberto Williams,633-655-1487,"7456 Matthew Gardens
Maryborough, VI 09051",amy44@example.org
743562,432527,Patrick Williams,294-662-1559,"307 Cummings Divide Suite 469
North Jennifer, DE 70009",hortoncatherine@example.com
455577,911721,Maria Mcintosh,936-572-1931,"USS Kerr
FPO AP 38051",pgonzalez@example.org
112283,388785,David Garza,638-432-2995,"0603 Kelly Mount Apt. 131
Monicamouth, TN 55955",michael76@example.com
932617,675233,Douglas Zamora,490-171-4447,"543 Solis Course Apt. 735
Davisport, SC 98811",david13@example.net
584214,142141,James Peterson,416-078-2822,"876 Daniel Lane
Andreaview, MN 73449",sonyasmith@example.com
855812,483479,Aaron Castillo,322-956-2568,"06105 Carolyn Lake Suite 700
Allenberg, NM 13136",williamsjessica@example.com
724847,425838,Michael Williams,414-862-4395,"552 Torres Drive Suite 763
Cassandrafort, ID 34811",welchdeborah@example.net
867391,712338,Ms. April Dunn,335-334-8579,"16220 Clark Walk
Paulstad, SC 64185",iramirez@example.org
393528,881844,Mark Lambert,680-008-3232,"048 Colin Fort
Sabrinahaven, MO 67663",unavarro@example.net
686437,571612,Carol Reynolds,571-745-2125,"374 Renee Meadows
Weeksbury, IA 33785",hannahlewis@example.net
787378,778951,Tiffany Moore,656-783-8764,"992 Tamara Wells Apt. 223
Mcneilfurt, AL 86127",ihayden@example.com
256194,878984,Yesenia Evans,203-288-4270,"73967 Walter Burgs Apt. 934
North Kathleen, OK 47977",mcguiremarvin@example.org
984864,191769,Vanessa Allen,855-153-8706,"PSC 4286, Box 2275
APO AP 07845",andrew11@example.net
279796,257828,Courtney Mitchell,010-047-1942,"675 Brittany Crossroad Suite 935
Victoriaside, TN 45241",levinecourtney@example.org
313278,687135,Deanna Munoz,841-307-5482,"49313 Smith Village
Dawnport, VA 81449",jhardin@example.org
932833,486849,James James,045-906-8218,"USCGC Jones
FPO AP 77906",lbrown@example.com
685485,468357,Melinda Wright,299-266-2509,"27967 Walker Pike Suite 075
South Barbarabury, KY 49283",gonzalezryan@example.com
697491,768345,Laurie Martin,318-400-2092,"7993 Jay Loaf
East Kellyfort, NH 23636",joseph56@example.org
284459,283343,Francisco Savage,094-713-5767,"66877 Rivera Spring
Markmouth, MD 54858",ashleyblackburn@example.net
418561,827854,Meghan Adams,005-475-2892,"1595 David Spur
New Nicholashaven, NY 29244",james59@example.org
795713,491165,Mr. Jordan Johnson,014-692-3800,"590 Larson Rue
Kingview, NV 50186",ibrown@example.org
438215,633912,Matthew Jackson,572-394-8850,"1814 Friedman Motorway
Lake Amy, GU 12517",john61@example.com
736763,672429,Andrew Hernandez,525-998-5029,"293 Alyssa Center
Williamsbury, ME 91344",imiranda@example.org
598197,485661,Brittney Jackson,713-617-4403,"730 Brian Union Apt. 248
Christophershire, RI 09267",laura09@example.com
777871,953921,Allison Booth,498-826-3387,"408 Gonzalez Turnpike Suite 572
New Michelleland, PR 90987",matthew04@example.net
139883,882229,Patricia Lucas,956-491-7411,"82086 Brady Ranch
East Philliphaven, NV 41515",danday@example.org
259739,192324,Matthew Lewis,191-353-5506,"98926 Reyes Plain
Espinozaberg, VA 37956",kgonzales@example.net
668526,635898,Cole Carter,828-841-8310,"11634 Michelle Avenue
Catherineton, WA 29795",jeremyoneal@example.org
373292,236632,Kyle Mckenzie,983-063-4943,"056 Stacy Branch
South Christopher, OH 62994",jacob87@example.net
312644,487148,Eric Roberts,920-750-9239,"839 Beth Mountain Suite 230
Atkinsmouth, IN 36998",lindafleming@example.net
941144,659325,Michelle Salinas,860-303-5731,"772 Kristen Parks Suite 486
Powellhaven, AR 64510",brittanyvaughn@example.com
642836,676439,Brooke Macdonald,290-680-4590,"Unit 6863 Box 6352
DPO AA 48272",ghale@example.net
435865,743777,Chris Lowery,499-324-7281,"004 Darryl Land Apt. 013
South Christopher, VI 96628",andrew36@example.org
286465,896183,John Yates,375-793-1114,"62982 Melissa Mill Apt. 011
Lake Jessicaville, PA 37721",annettewilliams@example.net
532155,192266,Brent Barnett,419-352-3423,"Unit 5761 Box 8268
DPO AE 40983",chelseacallahan@example.org
591121,737171,Joseph Warren,507-054-0428,"2035 Michael Mills Apt. 427
Rachaelshire, CO 05543",gbennett@example.net
315667,319577,Kari Steele,635-529-8757,"3484 Williamson Plaza Apt. 746
Bobbyfurt, IA 49669",rosschristopher@example.com
316172,956615,Robert Thomas,919-532-9448,"6761 Heather Valley
Barrettport, MN 96235",nwright@example.net
955282,937849,Jaime Aguilar,988-888-7006,"512 Kennedy Street
Stephenberg, FL 15055",skinnersteven@example.com
578732,867452,Melanie Bartlett,957-720-6859,"22167 Carlos Street Apt. 026
Prattshire, AL 42583",zlewis@example.com
799555,196739,Christine Wood,961-217-1960,"465 Christopher Center
North Gregoryville, WI 84705",eenglish@example.com
259675,954299,Donald Freeman,259-122-7305,"1037 Robert Ranch
Noahport, PW 63154",joshua61@example.net
966352,596311,Jordan Garcia,904-598-8309,"USS May
FPO AE 31849",jameswilson@example.com
737176,954579,Brandy Mccoy,135-024-4073,"7939 Bradford Curve
Maryberg, IA 32409",ewerner@example.net
468838,216596,Megan Berry,955-890-5353,"USNV Juarez
FPO AP 50362",joseph88@example.net
631855,212851,Sandra Coleman,785-175-8756,"402 Baird Wall
South Nicholastown, SC 70937",johnsonkimberly@example.net
444579,864946,Lisa Mahoney,782-188-5692,"646 Gallagher Flats
North Brian, FL 41043",hallemily@example.com
681737,553794,Tiffany Mccall,191-252-4235,"028 Kayla Run Apt. 280
Stoneside, DE 87983",millerrhonda@example.net
655582,269468,Laurie Flores,987-162-0120,"891 Brenda Squares
Brandonport, DE 84927",larrymckee@example.org
958341,237722,Erika Buckley,753-762-6915,"PSC 2696, Box 1201
APO AA 68651",brian86@example.com
797984,173848,Dr. Jeffery Stewart,950-427-0888,"8476 Tina Wall
West Andreaville, NH 50953",martingwendolyn@example.net
118331,269799,Valerie Aguilar,767-958-6928,"924 Hayes Motorway Suite 202
New Cassidyburgh, WV 49159",johnsonjacob@example.org
331713,758788,Mr. Mark Cherry,035-102-7236,"477 Isaiah Haven
Port Samantha, MS 87495",deborah13@example.com
194977,733938,Kathryn Boyle,347-979-0318,"Unit 1967 Box 3231
DPO AA 77681",shannon60@example.org
611854,839924,Katie Bowman,288-815-6167,"092 Keith Run
Amberport, GA 08780",taylor04@example.com
128492,881396,Heather Scott,374-770-6785,"714 Jennifer Islands
West Johntown, AL 95718",akelley@example.net
246632,272265,Joseph Gonzales,522-358-6172,"791 Peterson Avenue
South Dawn, IN 27010",michelle57@example.net
464576,193265,Brian Walker,399-463-4238,"76680 Tammy Valley
Andreafurt, NJ 31630",burnsbrenda@example.org
144341,655813,Kenneth Knox,663-942-5902,"11191 Johnson Street
Lake Mandyview, NV 03793",dyu@example.com
681544,371554,Michelle Strong,910-979-6275,"767 Stone Port Apt. 461
South Benjamintown, AL 97794",natasha32@example.net
359362,381296,Bradley Goodman,503-432-1981,"41026 Todd Field Apt. 579
New Jeanette, VA 47148",michaeltaylor@example.org
127872,217858,Jim Cross,702-910-5711,"81971 Tucker Glen Suite 605
North Peter, NV 81975",nealdennis@example.org
265211,678339,Steven Davis,344-514-7869,"318 Mcneil Haven Suite 238
Kimburgh, ME 17021",robertroberts@example.org
